[{"OBJECT_NAME":"STARLINK-34585","OBJECT_ID":"2025-147AA","EPOCH":"2026-03-09T18:05:33.386496","MEAN_MOTION":15.30193722,"ECCENTRICITY":0.0001063,"INCLINATION":53.159,"RA_OF_ASC_NODE":242.2993,"ARG_OF_PERICENTER":82.9782,"MEAN_ANOMALY":277.134,"EPHEMERIS_TYPE":0,"CLASSIFICATION_TYPE":"U","NORAD_CAT_ID":64779,"ELEMENT_SET_NO":999,"REV_AT_EPOCH":3871,"BSTAR":0.00070632141,"MEAN_MOTION_DOT":0.00020614,"MEAN_MOTION_DDOT":0},{"OBJECT_NAME":"ARIANE 5 DEB [SYLDA]","OBJECT_ID":"2015-034D","EPOCH":"2026-03-09T23:18:48.958272","MEAN_MOTION":13.47402299,"ECCENTRICITY":0.12499591,"INCLINATION":3.8791,"RA_OF_ASC_NODE":64.6612,"ARG_OF_PERICENTER":201.0255,"MEAN_ANOMALY":153.3584,"EPHEMERIS_TYPE":0,"CLASSIFICATION_TYPE":"U","NORAD_CAT_ID":40735,"ELEMENT_SET_NO":999,"REV_AT_EPOCH":12318,"BSTAR":0.0051736353,"MEAN_MOTION_DOT":0.10375032,"MEAN_MOTION_DDOT":-2.0134112e-5}]
